NORAD_CAT_ID,OBJECT_NAME,OBJECT_TYPE,EPOCH,MEAN_MOTION,ECCENTRICITY,INCLINATION,RA_OF_ASC_NODE,ARG_OF_PERICENTER,MEAN_ANOMALY,BSTAR,MEAN_MOTION_DOT,MEAN_MOTION_DDOT,TLE_LINE0,TLE_LINE1,TLE_LINE2,SEMIMAJOR_AXIS,PERIOD,APOGEE,PERIGEE,DECAYED
55293.0,STARLINK-5287,PAYLOAD,2024-04-02 20:44:03,14.98318144,0.0003066,69.9999,4.0831,265.0703,95.0106,0.00012631,1.414e-05,0.0,0 STARLINK-5287,1 55293U 23010AA  24093.86392719  .00001414  00000-0  12631-3 0  9999,2 55293  69.9999   4.0831 0003066 265.0703  95.0106 14.98318144 67547,6950.23,96.108,574.225,569.964,0.0
55293.0,STARLINK-5287,PAYLOAD,2024-04-03 11:09:15,14.98341051,0.0002749,70.0005,2.5676,275.8125,84.2721,-0.00020113,-2.493e-05,0.0,0 STARLINK-5287,1 55293U 23010AA  24094.46476239 -.00002493  00000-0 -20113-3 0  9990,2 55293  70.0005   2.5676 0002749 275.8125  84.2721 14.98341051 67638,6950.159,96.106,573.934,570.113,0.0
55293.0,STARLINK-5287,PAYLOAD,2024-04-03 19:09:56,14.98321244,0.000294,70.0005,1.7254,272.4888,87.5935,7.9782e-05,8.59e-06,0.0,0 STARLINK-5287,1 55293U 23010AA  24094.79856741  .00000859  00000-0  79782-4 0  9995,2 55293  70.0005   1.7254 0002940 272.4888  87.5935 14.98321244 67380,6950.22,96.108,574.128,570.042,0.0
55293.0,STARLINK-5287,PAYLOAD,2024-04-03 20:46:04,14.98323652,0.0002815,70.0005,1.5573,272.1114,87.9723,3.107e-05,2.78e-06,0.0,0 STARLINK-5287,1 55293U 23010AA  24094.86532767  .00000278  00000-0  31070-4 0  9995,2 55293  70.0005   1.5573 0002815 272.1114  87.9723 14.98323652 67690,6950.213,96.107,574.034,570.121,0.0
55293.0,STARLINK-5287,PAYLOAD,2024-04-04 11:11:16,14.98327767,0.0002773,70.0006,0.0425,271.0997,88.9845,2.2917e-06,-6.6e-07,0.0,0 STARLINK-5287,1 55293U 23010AA  24095.46616687 -.00000066  00000-0  22917-5 0  9993,2 55293  70.0006   0.0425 0002773 271.0997  88.9845 14.98327767 67788,6950.2,96.107,573.992,570.138,0.0
55293.0,STARLINK-5287,PAYLOAD,2024-04-04 20:48:04,14.98338817,0.0002914,70.0005,359.0325,271.4059,88.6766,-0.00016387,-2.048e-05,0.0,0 STARLINK-5287,1 55293U 23010AA  24095.86672339 -.00002048  00000-0 -16387-3 0  9998,2 55293  70.0005 359.0325 0002914 271.4059  88.6766 14.98338817 67544,6950.166,96.106,574.056,570.005,0.0
55293.0,STARLINK-5287,PAYLOAD,2024-04-04 22:24:12,14.98346812,0.0002922,70.0005,358.8641,272.2648,87.8177,-0.00030404,-3.72e-05,0.0,0 STARLINK-5287,1 55293U 23010AA  24095.93348095 -.00003720  00000-0 -30404-3 0  9999,2 55293  70.0005 358.8641 0002922 272.2648  87.8177 14.98346812 67859,6950.141,96.106,574.037,569.975,0.0
55293.0,STARLINK-5287,PAYLOAD,2024-04-05 03:12:37,14.98306004,0.0002856,70.0004,358.3589,265.9788,94.1045,0.00047284,5.55e-05,0.0,0 STARLINK-5287,1 55293U 23010AA  24096.13377035  .00005550  00000-0  47284-3 0  9993,2 55293  70.0004 358.3589 0002856 265.9788  94.1045 14.98306004 67588,6950.267,96.109,574.117,570.147,0.0
55293.0,STARLINK-5287,PAYLOAD,2024-04-05 11:13:17,14.98332037,0.0002798,70.0004,357.5172,268.9621,91.1217,1.3577e-05,6.9e-07,0.0,0 STARLINK-5287,1 55293U 23010AA  24096.46756337  .00000069  00000-0  13577-4 0  9994,2 55293  70.0004 357.5172 0002798 268.9621  91.1217 14.98332037 67630,6950.187,96.107,573.996,570.107,0.0
55293.0,STARLINK-5287,PAYLOAD,2024-04-05 20:50:05,14.98330878,0.0002838,70.0002,356.5072,268.8088,91.2746,6.1805e-05,6.45e-06,0.0,0 STARLINK-5287,1 55293U 23010AA  24096.86812204  .00000645  00000-0  61805-4 0  9991,2 55293  70.0002 356.5072 0002838 268.8088  91.2746 14.98330878 67995,6950.19,96.107,574.028,570.083,0.0
55293.0,STARLINK-5287,PAYLOAD,2024-04-06 03:14:37,14.9833593,0.0002828,70.0002,355.8339,268.6273,91.4562,6.9907e-05,7.41e-06,0.0,0 STARLINK-5287,1 55293U 23010AA  24097.13515797  .00000741  00000-0  69907-4 0  9997,2 55293  70.0002 355.8339 0002828 268.6273  91.4562 14.98335930 68034,6950.175,96.107,574.005,570.074,0.0
55293.0,STARLINK-5287,PAYLOAD,2024-04-06 22:28:15,14.98327301,0.0002706,70.0009,353.8155,275.1894,84.8956,-5.8559e-07,-1e-06,0.0,0 STARLINK-5287,1 55293U 23010AA  24097.93628557 -.00000100  00000-0 -58559-6 0  9998,2 55293  70.0009 353.8155 0002706 275.1894  84.8956 14.98327301 68151,6950.201,96.107,573.947,570.186,0.0
55293.0,STARLINK-5287,PAYLOAD,2024-04-07 09:41:11,14.98328462,0.0002698,70.0004,352.6372,268.4642,91.6208,-5.7881e-05,-7.83e-06,0.0,0 STARLINK-5287,1 55293U 23010AA  24098.40360577 -.00000783  00000-0 -57881-4 0  9998,2 55293  70.0004 352.6372 0002698 268.4642  91.6208 14.98328462 68223,6950.198,96.107,573.938,570.187,0.0
55293.0,STARLINK-5287,PAYLOAD,2024-04-07 20:54:07,14.98335213,0.0002472,70.0008,351.4586,272.5505,87.5371,-0.00010651,-1.364e-05,0.0,0 STARLINK-5287,1 55293U 23010AA  24098.87092336 -.00001364  00000-0 -10651-3 0  9993,2 55293  70.0008 351.4586 0002472 272.5505  87.5371 14.98335213 68299,6950.177,96.107,573.76,570.324,0.0
55293.0,STARLINK-5287,PAYLOAD,2024-04-08 01:42:31,14.98333096,0.0002669,70.0004,350.9537,269.6925,90.3928,-1.6905e-05,-2.95e-06,0.0,0 STARLINK-5287,1 55293U 23010AA  24099.07120121 -.00000295  00000-0 -16905-4 0  9991,2 55293  70.0004 350.9537 0002669 269.6925  90.3928 14.98333096 68024,6950.183,96.107,573.903,570.193,0.0
55293.0,STARLINK-5287,PAYLOAD,2024-04-08 09:43:12,14.98328103,0.0002639,70.0005,350.1119,263.4919,96.5939,6.1842e-05,6.45e-06,0.0,0 STARLINK-5287,1 55293U 23010AA  24099.40500180  .00000645  00000-0  61842-4 0  9992,2 55293  70.0005 350.1119 0002639 263.4919  96.5939 14.98328103 68376,6950.199,96.107,573.898,570.23,0.0
55293.0,STARLINK-5287,PAYLOAD,2024-04-09 00:08:24,14.98349364,0.0002893,70.0003,348.5961,270.8051,89.2776,-0.0001844,-2.294e-05,0.0,0 STARLINK-5287,1 55293U 23010AA  24100.00583493 -.00002294  00000-0 -18440-3 0  9998,2 55293  70.0003 348.5961 0002893 270.8051  89.2776 14.98349364 68461,6950.133,96.106,574.009,569.987,0.0
55293.0,STARLINK-5287,PAYLOAD,2024-04-09 03:20:40,14.98338615,0.0002853,70.0002,348.2596,269.5217,90.5615,-7.4214e-06,-1.82e-06,0.0,0 STARLINK-5287,1 55293U 23010AA  24100.13935512 -.00000182  00000-0 -74214-5 0  9992,2 55293  70.0002 348.2596 0002853 269.5217  90.5615 14.98338615 68189,6950.166,96.106,574.014,570.048,0.0
55293.0,STARLINK-5287,PAYLOAD,2024-04-09 09:45:12,14.98338363,0.0002521,70.0012,347.586,273.8146,86.2725,-0.00015549,-1.948e-05,0.0,0 STARLINK-5287,1 55293U 23010AA  24100.40639965 -.00001948  00000-0 -15549-3 0  9990,2 55293  70.0012 347.5860 0002521 273.8146  86.2725 14.98338363 68529,6950.167,96.106,573.784,570.28,0.0
55293.0,STARLINK-5287,PAYLOAD,2024-04-09 22:34:17,14.98329394,0.0002438,70.0012,346.2399,271.6356,88.4523,-1.5828e-05,-2.82e-06,0.0,0 STARLINK-5287,1 55293U 23010AA  24100.94048191 -.00000282  00000-0 -15828-4 0  9995,2 55293  70.0012 346.2399 0002438 271.6356  88.4523 14.98329394 68601,6950.195,96.107,573.754,570.365,0.0
55293.0,STARLINK-5287,PAYLOAD,2024-04-10 01:46:33,14.98326393,0.0002701,70.0005,345.903,271.0989,88.9861,-5.8245e-05,-7.88e-06,0.0,0 STARLINK-5287,1 55293U 23010AA  24101.07400457 -.00000788  00000-0 -58245-4 0  9998,2 55293  70.0005 345.9030 0002701 271.0989  88.9861 14.98326393 68325,6950.204,96.107,573.946,570.192,0.0
55293.0,STARLINK-5287,PAYLOAD,2024-04-10 09:47:14,14.98326121,0.0002669,70.0007,345.0612,271.8677,88.2177,-5.68e-05,-7.71e-06,0.0,0 STARLINK-5287,1 55293U 23010AA  24101.40780538 -.00000771  00000-0 -56800-4 0  9993,2 55293  70.0007 345.0612 0002669 271.8677  88.2177 14.98326121 68679,6950.205,96.107,573.925,570.215,0.0
55293.0,STARLINK-5287,PAYLOAD,2024-04-10 22:36:18,14.98331638,0.000291,70.0001,343.7145,268.5523,91.5303,-3.0754e-05,-4.6e-06,0.0,0 STARLINK-5287,1 55293U 23010AA  24101.94188125 -.00000460  00000-0 -30754-4 0  9991,2 55293  70.0001 343.7145 0002910 268.5523  91.5303 14.98331638 68757,6950.188,96.107,574.075,570.03,0.0
55293.0,STARLINK-5287,PAYLOAD,2024-04-11 01:48:34,14.9834893,0.0003003,70.0001,343.3782,267.7511,92.3304,-0.00034571,-4.218e-05,0.0,0 STARLINK-5287,1 55293U 23010AA  24102.07539993 -.00004218  00000-0 -34571-3 0  9994,2 55293  70.0001 343.3782 0003003 267.7511  92.3304 14.98348930 68474,6950.134,96.106,574.086,569.912,0.0
55293.0,STARLINK-5287,PAYLOAD,2024-04-11 09:49:14,14.98332778,0.0002956,69.9999,342.5359,271.4835,88.5986,-2.5844e-05,-4.01e-06,0.0,0 STARLINK-5287,1 55293U 23010AA  24102.40920011 -.00000401  00000-0 -25844-4 0  9990,2 55293  69.9999 342.5359 0002956 271.4835  88.5986 14.98332778 68527,6950.184,96.107,574.104,569.995,0.0
55293.0,STARLINK-5287,PAYLOAD,2024-04-11 22:38:19,14.98334062,0.0002958,69.9999,341.1892,270.7494,89.3326,7.5342e-05,8.06e-06,0.0,0 STARLINK-5287,1 55293U 23010AA  24102.94327614  .00000806  00000-0  75342-4 0  9994,2 55293  69.9999 341.1892 0002958 270.7494  89.3326 14.98334062 68906,6950.18,96.107,574.101,569.989,0.0
55293.0,STARLINK-5287,PAYLOAD,2024-04-12 01:50:35,14.98334229,0.0002972,69.9999,340.8527,270.9956,89.0862,7.1763e-05,7.63e-06,0.0,0 STARLINK-5287,1 55293U 23010AA  24103.07679586  .00000763  00000-0  71763-4 0  9992,2 55293  69.9999 340.8527 0002972 270.9956  89.0862 14.98334229 68927,6950.18,96.107,574.11,569.979,0.0
55293.0,STARLINK-5287,PAYLOAD,2024-04-12 22:40:20,14.98330408,0.0003029,69.9998,338.6645,270.8958,89.1854,2.5346e-05,2.09e-06,0.0,0 STARLINK-5287,1 55293U 23010AA  24103.94467826  .00000209  00000-0  25346-4 0  9991,2 55293  69.9998 338.6645 0003029 270.8958  89.1854 14.98330408 69059,6950.192,96.107,574.162,569.951,0.0
55293.0,STARLINK-5287,PAYLOAD,2024-04-13 01:52:36,14.98332827,0.0003013,69.9999,338.3279,270.9598,89.1216,5.0098e-05,5.05e-06,0.0,0 STARLINK-5287,1 55293U 23010AA  24104.07819590  .00000505  00000-0  50098-4 0  9996,2 55293  69.9999 338.3279 0003013 270.9598  89.1216 14.98332827 68771,6950.184,96.107,574.143,569.955,0.0
55293.0,STARLINK-5287,PAYLOAD,2024-04-13 21:06:13,14.98326862,0.0002908,70.0003,336.3081,272.0624,88.0202,-0.00010036,-1.29e-05,0.0,0 STARLINK-5287,1 55293U 23010AA  24104.87932406 -.00001290  00000-0 -10036-3 0  9997,2 55293  70.0003 336.3081 0002908 272.0624  88.0202 14.98326862 68892,6950.203,96.107,574.089,570.046,0.0
